[{"OBJECT_NAME":"OBJECT B","OBJECT_ID":"2024-153B","EPOCH":"2026-03-09T23:15:18.632160","MEAN_MOTION":15.30512917,"ECCENTRICITY":0.00113423,"INCLINATION":97.6622,"RA_OF_ASC_NODE":204.9195,"ARG_OF_PERICENTER":149.8438,"MEAN_ANOMALY":210.3457,"EPHEMERIS_TYPE":0,"CLASSIFICATION_TYPE":"U","NORAD_CAT_ID":60746,"ELEMENT_SET_NO":999,"REV_AT_EPOCH":8476,"BSTAR":0.00066193599,"MEAN_MOTION_DOT":0.00019515,"MEAN_MOTION_DDOT":0},{"OBJECT_NAME":"STARLINK-35921","OBJECT_ID":"2025-271Z","EPOCH":"2026-03-09T12:16:11.715744","MEAN_MOTION":15.3018855,"ECCENTRICITY":0.0001416,"INCLINATION":53.1593,"RA_OF_ASC_NODE":140.4565,"ARG_OF_PERICENTER":76.929,"MEAN_ANOMALY":283.1869,"EPHEMERIS_TYPE":0,"CLASSIFICATION_TYPE":"U","NORAD_CAT_ID":66640,"ELEMENT_SET_NO":999,"REV_AT_EPOCH":1754,"BSTAR":0.00073634109,"MEAN_MOTION_DOT":0.00021505,"MEAN_MOTION_DDOT":0}]
